OBJECT_NAME,OBJECT_ID,EPOCH,MEAN_MOTION,ECCENTRICITY,INCLINATION,RA_OF_ASC_NODE,ARG_OF_PERICENTER,MEAN_ANOMALY,EPHEMERIS_TYPE,CLASSIFICATION_TYPE,NORAD_CAT_ID,ELEMENT_SET_NO,REV_AT_EPOCH,BSTAR,MEAN_MOTION_DOT,MEAN_MOTION_DDOT
LEMUR-2-ROUNDTRIPPER,2025-009DG,2026-07-20T18:10:16.157280,15.04280173,.00044342,97.7240,284.3978,53.7790,306.3845,0,U,62711,999,8267,.32850469E-3,.4512E-4,0
LEMUR-2-MYNAMEISJEFF,2025-009DH,2026-07-20T22:55:30.004896,15.04275983,.00043326,97.7287,284.9972,86.1884,273.9837,0,U,62712,999,8270,.4072E-3,.5608E-4,0
LEMUR-2-LEIA-PHILIP,2025-052AN,2026-07-20T22:48:30.801600,14.97394872,.00050508,97.6789,93.3277,107.6890,252.4884,0,U,63246,999,7372,.38911831E-4,.395E-5,0
LEMUR-2-LIA-MARTIN,2025-052AQ,2026-07-20T22:37:05.293632,14.98050706,.00048963,97.6848,93.8486,75.7927,284.3839,0,U,63248,999,7373,.17587929E-3,.2021E-4,0
LEMUR-2-DELOITTE-1,2025-052BB,2026-07-20T06:08:17.477376,14.97807195,.00025299,97.6886,93.5026,57.2347,302.9118,0,U,63259,999,7364,.21411742E-3,.2458E-4,0
LEMUR-2-EMERSONROSE,2025-052BD,2026-07-20T06:21:22.752288,14.99315888,.00024327,97.6885,94.1364,47.4222,312.7206,0,U,63261,999,7369,.19231381E-3,.229E-4,0
LEMUR-2-MARACHE-FRAN,2025-052BE,2026-07-20T10:01:12.034560,15.00333801,.00058158,97.6815,94.6586,231.5987,128.4715,0,U,63262,999,7374,.15229593E-3,.1851E-4,0
LEMUR-2-THEFALCONER,2025-052BG,2026-07-20T22:55:23.719296,14.97579793,.00007675,97.6813,93.7751,216.0901,144.0269,0,U,63264,999,7374,.1543125E-3,.1744E-4,0
LEMUR-2-UNTITLED-SC,2025-061A,2026-07-20T19:19:14.688768,15.13669097,.00197191,97.5661,176.9302,144.4715,215.7834,0,U,63351,999,7267,.1280848E-3,.2247E-4,0
LEMUR-2-ESPERANZA,2025-061B,2026-07-20T21:53:32.006400,15.13775558,.00193561,97.5668,177.1382,143.5155,216.7400,0,U,63352,999,7269,.12112913E-3,.2127E-4,0
LEMUR-2-KREMPEL-BRO2,2025-061C,2026-07-20T22:18:31.967424,15.14203412,.00204688,97.5714,177.7317,136.4327,223.8526,0,U,63353,999,7271,.13082691E-3,.2332E-4,0
LEMUR-2-THERMORAPTOR,2025-061D,2026-07-20T21:50:04.968672,15.14286443,.00201879,97.5720,177.7943,135.4604,224.8255,0,U,63354,999,7271,.12802032E-3,.2286E-4,0
LEMUR-2-NEUROSPICY,2025-061E,2026-07-20T21:05:32.333280,15.14404805,.00179593,97.5648,177.3637,138.3390,221.9213,0,U,63355,999,7271,.12904134E-3,.231E-4,0
LEMUR-2-TILLINFINITY,2025-061F,2026-07-20T21:37:37.248384,15.14989431,.00194898,97.5632,177.6998,127.4100,232.8910,0,U,63356,999,7274,.13843006E-3,.2527E-4,0
LEMUR-2-KREMPEL-BRO1,2025-061G,2026-07-20T21:05:37.353120,15.14796156,.00201001,97.5634,177.5844,128.7862,231.5169,0,U,63357,999,7273,.12807574E-3,.2321E-4,0
LEMUR-2-LANGER2SPACE,2025-061H,2026-07-20T21:53:32.276832,15.14490073,.00178915,97.5638,177.4179,136.6750,223.5892,0,U,63358,999,7272,.12868601E-3,.231E-4,0
LEMUR-2-BALTO,2025-052BH,2026-07-20T22:26:41.595360,15.00393568,.00049874,97.6918,95.1660,302.7684,57.3058,0,U,63395,999,7382,.24163224E-3,.2977E-4,0
LEMUR-2-KRISH,2025-135AK,2026-07-20T20:15:20.370528,14.96473292,.00011305,97.7761,316.4983,108.4147,251.7198,0,U,64561,999,5895,.26885774E-3,.2994E-4,0
LEMUR-2-HUBBLE-4,2025-135AP,2026-07-20T20:02:50.875584,14.93694653,.00030946,97.7723,315.3537,149.0927,211.0475,0,U,64565,999,5889,.64472648E-4,.625E-5,0
LEMUR-2-SEJONG-2,2025-135BL,2026-07-20T22:19:21.834912,14.96941763,.00043064,97.7709,316.7295,192.0048,168.1072,0,U,64586,999,5899,.30067445E-3,.3397E-4,0
LEMUR-2-HUBBLE-5,2025-135BT,2026-07-20T20:12:42.583392,14.94221604,.00047674,97.7742,316.0356,212.8278,147.2647,0,U,64840,999,5893,.72277989E-4,.718E-5,0
LEMUR-2-KARENDARRELL,2025-135BU,2026-07-20T20:45:08.400384,15.00548023,.00128951,97.7720,318.0329,87.6727,272.5973,0,U,64841,999,5906,.41543134E-3,.5189E-4,0
LEMUR-2-LUCILLE-ROSE,2025-135BV,2026-07-20T18:30:58.534848,15.00528367,.00154621,97.7695,317.9739,172.4028,187.7433,0,U,65403,999,5367,.32920086E-3,.41E-4,0
LEMUR-2-AFFIE-WAUWIE,2025-248C,2026-07-20T06:31:10.706016,15.28387854,.00092673,45.3906,295.5651,278.2221,81.7618,0,U,66295,999,3965,.45736339E-3,.12608E-3,0
OTTER SDM,2025-276N,2026-07-20T18:12:21.224736,15.20094120,.00046511,97.4196,274.6830,228.6330,131.4505,0,U,66678,999,3551,.17244671E-3,.3656E-4,0
LEMUR-2-STAS-GORBUK,2025-276W,2026-07-20T17:10:30.492480,15.19690351,.00040039,97.4229,274.6917,222.7584,137.3340,0,U,66686,999,3550,.14301913E-3,.2985E-4,0
LEMUR-2-TEODOR,2025-276DG,2026-07-20T22:12:54.737856,15.21374071,.00021007,97.4132,275.1774,83.2990,276.8485,0,U,66768,999,3557,.17150089E-3,.3775E-4,0
LEMUR-2-LAILA,2025-276DQ,2026-07-20T18:18:48.268224,15.21598326,.0002837,97.4156,275.1595,86.3974,273.7586,0,U,66776,999,3555,.15214673E-3,.3364E-4,0
LEMUR-2-CELIJO-SB-PK,2025-276DW,2026-07-20T22:05:44.103840,15.00322329,.00066689,97.5182,271.5840,50.4317,309.7496,0,U,66781,999,2768,.32456776E-3,.4015E-4,0
